TDRS 3                  
1 19548U 88091B   17286.13828019 -.00000314  00000-0  00000-0 0  9998
2 19548  14.4480   6.7537 0035296 307.2719  55.1467  1.00264026 93632
HST                     
1 20580U 90037B   17286.49131769  .00000810  00000-0  38948-4 0  9993
2 20580  28.4700 305.7354 0002748  11.5487 113.1243 15.08884768308081
TDRS 5                  
1 21639U 91054B   17286.44563372  .00000071  00000-0  00000-0 0  9996
2 21639  14.4462  20.1619 0019078 339.4707  15.2917  1.00273947 95935
TDRS 6                  
1 22314U 93003B   17286.59845161 -.00000307  00000-0  00000-0 0  9991
2 22314  13.9859  23.1182 0005476 275.7661 252.8017  1.00281323 90679
TDRS 7                  
1 23613U 95035B   17286.47125633 -.00000212  00000-0  00000+0 0  9997
2 23613  15.0138  13.8594 0026041 359.5062 263.0521  1.00266705 81373
ISS (ZARYA)             
1 25544U 98067A   17286.80824110  .00003561  00000-0  60938-4 0  9993
2 25544  51.6419 166.9874 0004581  20.3328  23.4529 15.54163293 80209
LANDSAT 7               
1 25682U 99020A   17286.30608717  .00000171  00000-0  48018-4 0  9993
2 25682  98.1982 355.7582 0000867  67.0339 293.0960 14.57110289983799
TERRA                   
1 25994U 99068A   17288.44535476  .00000168  00000-0  37297-4 0  9992
2 25994  98.1989   1.7124 0000757  72.1783 288.0110 14.57123886948182
TDRS 8                  
1 26388U 00034A   17285.84439071 -.00000246  00000-0  00000-0 0  9996
2 26388   7.6853  54.8237 0008065 213.0369 146.9400  1.00269014 63400
EO-1                    
1 26619U 00075A   17286.53308609 -.00000431  00000-0 -73025-4 0  9995
2 26619  97.8254 310.0451 0010992  90.0062 270.2302 14.64407655900853
TIMED                   
1 26998U 01055B   17286.55107631  .00000224  00000-0  28544-4 0  9992
2 26998  74.0711  79.5933 0000529 337.2716  22.8441 14.87945455859035
TDRS 9                  
1 27389U 02011A   17286.49223472 -.00000119  00000-0  00000-0 0  9992
2 27389   5.4870  77.6106 0018103 233.6514 236.2694  1.00271929 58678
AQUA                    
1 27424U 02022A   17288.46445486  .00000229  00000-0  50842-4 0  9998
2 27424  98.2101 227.9996 0001816  80.9101 279.2816 14.57114340821793
TDRS 10                 
1 27566U 02055A   17285.58546498  .00000060  00000-0  00000-0 0  9996
2 27566   5.2333  57.8637 0008873 207.6984 152.3159  1.00266126 54450
SORCE                   
1 27651U 03004A   17286.57840487  .00000320  00000-0  47822-4 0  9997
2 27651  39.9969  21.9061 0023989 345.5619  14.4482 14.88745380798400
AURA                    
1 28376U 04026A   17286.61595807  .00000163  00000-0  46244-4 0  9997
2 28376  98.2134 228.3487 0001973  78.9809 281.1612 14.57110363704520
SWIFT                   
1 28485U 04047A   17286.52797923  .00001354  00000-0  63966-4 0  9997
2 28485  20.5575  27.3480 0011137 294.0540  65.8729 15.03885689706029
THEMIS A                
1 30580U 07004A   17285.25061837 -.00000330  00000-0  00000-0 0  9999
2 30580   7.6692 180.0326 8341767 154.7258 298.8107  0.87743327 13433
THEMIS D                
1 30797U 07004D   17284.45644263 -.00000393  00000-0  00000-0 0  9999
2 30797   4.7986 138.8790 8126827 211.2458  53.0440  1.06412578 14336
THEMIS E                
1 30798U 07004E   17284.94901257 -.00000481  00000-0  00000-0 0  9991
2 30798   5.1311 167.0058 8317208 179.0284 186.3206  0.87683788 38560
AIM                     
1 31304U 07015A   17286.53861196  .00001585  00000-0  95693-4 0  9992
2 31304  98.0029 111.1437 0006548  92.8816 267.3163 15.12306463572829
FGRST (GLAST)           
1 33053U 08029A   17286.36022335  .00000779  00000-0  28224-4 0  9996
2 33053  25.5827 279.4827 0012248 207.9663 152.0214 15.10975829515210
WISE                    
1 36119U 09071A   17286.53687768  .00001524  00000-0  57512-4 0  9997
2 36119  97.4421 314.3238 0001112 231.4306 128.6834 15.28582908434356
TDRS 11                 
1 39070U 13004A   17286.32606008  .00000066  00000-0  00000-0 0  9998
2 39070   5.2417 328.5652 0009773 284.8185  74.9348  1.00268332 14929
TDRS 12                 
1 39504U 14004A   17285.98676064 -.00000297  00000-0  00000-0 0  9998
2 39504   5.8521 335.9675 0003714 293.1796  66.6739  1.00264768 12503
GPM-CORE                
1 39574U 14009C   17286.41544366  .00006634  00000-0  10034-3 0  9999
2 39574  65.0084 237.8085 0010732 283.0487  76.9461 15.55551850205911
MMS 1                   
1 40482U 15011A   17282.01388889 -.00000139  00000-0  00000+0 0  9994
2 40482  22.3344 308.9561 9003193 159.3858  31.4644  0.35519717  8068
MMS 2                   
1 40483U 15011B   17278.97569444  .00000105  00000-0  00000+0 0  9995
2 40483  22.4145 308.9796 9003803 159.2387   3.3379  0.35518562  8041
MMS 3                   
1 40484U 15011C   17282.74375000 -.00000148  00000-0  00000+0 0  9997
2 40484  22.3518 308.9389 9015804 159.3950 124.9303  0.35494681  8057
MMS 4                   
1 40485U 15011D   17282.01041667 -.00000138  00000-0  00000+0 0  9996
2 40485  22.3383 308.9544 9017650 159.3329  31.3381  0.35489454  8040
